NORAD_CAT_ID,OBJECT_NAME,OBJECT_TYPE,EPOCH,MEAN_MOTION,ECCENTRICITY,INCLINATION,RA_OF_ASC_NODE,ARG_OF_PERICENTER,MEAN_ANOMALY,BSTAR,MEAN_MOTION_DOT,MEAN_MOTION_DDOT,TLE_LINE0,TLE_LINE1,TLE_LINE2,SEMIMAJOR_AXIS,PERIOD,APOGEE,PERIGEE,DECAYED
52125.0,STARLINK-3727,PAYLOAD,2024-01-15 05:00:29,15.08855754,0.0001525,53.2179,350.7859,114.2732,245.8419,0.00024612,3.633e-05,0.0,0 STARLINK-3727,1 52125U 22029AP  24015.20867238  .00003633  00000-0  24612-3 0  9991,2 52125  53.2179 350.7859 0001525 114.2732 245.8419 15.08855754102503,6917.832,95.437,540.752,538.642,0.0
52125.0,STARLINK-3727,PAYLOAD,2024-01-15 22:29:44,15.08837521,0.0001606,53.2203,347.5255,115.9481,244.1677,7.7136e-06,-1.65e-06,0.0,0 STARLINK-3727,1 52125U 22029AP  24015.93732318 -.00000165  00000-0  77136-5 0  9990,2 52125  53.2203 347.5255 0001606 115.9481 244.1677 15.08837521102616,6917.888,95.438,540.864,538.642,0.0
52125.0,STARLINK-3727,PAYLOAD,2024-01-16 08:02:03,15.08839453,0.0001499,53.2161,345.7408,105.1482,254.9676,4.0277e-05,3.53e-06,0.0,0 STARLINK-3727,1 52125U 22029AP  24016.33476263  .00000353  00000-0  40277-4 0  9992,2 52125  53.2161 345.7408 0001499 105.1482 254.9676 15.08839453102671,6917.882,95.438,540.784,538.71,0.0
52125.0,STARLINK-3727,PAYLOAD,2024-01-16 22:20:31,15.0884088,0.0001422,53.2179,343.063,97.9605,262.1548,8.4935e-07,-2.74e-06,0.0,0 STARLINK-3727,1 52125U 22029AP  24016.93092182 -.00000274  00000-0  84935-6 0  9996,2 52125  53.2179 343.0630 0001422  97.9605 262.1548 15.08840880102764,6917.878,95.437,540.726,538.759,0.0
52125.0,STARLINK-3727,PAYLOAD,2024-01-17 03:06:40,15.08844662,0.0001616,53.2184,342.1712,110.9179,249.1986,0.00014385,2.002e-05,0.0,0 STARLINK-3727,1 52125U 22029AP  24017.12963875  .00002002  00000-0  14385-3 0  9993,2 52125  53.2184 342.1712 0001616 110.9179 249.1986 15.08844662102794,6917.866,95.437,540.849,538.613,0.0
52125.0,STARLINK-3727,PAYLOAD,2024-01-18 04:32:52,15.08820885,0.0001603,53.2175,337.4154,72.3829,287.7338,0.00062943,9.738e-05,0.0,0 STARLINK-3727,1 52125U 22029AP  24018.18949736  .00009738  00000-0  62943-3 0  9996,2 52125  53.2175 337.4154 0001603  72.3829 287.7338 15.08820885102958,6917.939,95.439,540.913,538.695,0.0
52125.0,STARLINK-3727,PAYLOAD,2024-01-18 06:08:14,15.08833143,0.0001503,53.2167,337.1163,98.1881,261.9282,0.00042516,6.484e-05,0.0,0 STARLINK-3727,1 52125U 22029AP  24018.25572894  .00006484  00000-0  42516-3 0  9990,2 52125  53.2167 337.1163 0001503  98.1881 261.9282 15.08833143102963,6917.901,95.438,540.806,538.727,0.0
52125.0,STARLINK-3727,PAYLOAD,2024-01-18 20:26:43,15.08828997,0.0001304,53.218,334.4375,105.6133,254.5003,-9.1048e-05,-1.736e-05,0.0,0 STARLINK-3727,1 52125U 22029AP  24018.85189133 -.00001736  00000-0 -91048-4 0  9998,2 52125  53.2180 334.4375 0001304 105.6133 254.5003 15.08828997103057,6917.914,95.438,540.681,538.877,0.0
52125.0,STARLINK-3727,PAYLOAD,2024-01-19 04:23:38,15.08844249,0.0001469,53.2171,332.9531,99.5132,260.6026,7.6237e-05,9.26e-06,0.0,0 STARLINK-3727,1 52125U 22029AP  24019.18308458  .00000926  00000-0  76237-4 0  9999,2 52125  53.2171 332.9531 0001469  99.5132 260.6026 15.08844249103103,6917.867,95.437,540.749,538.716,0.0
52125.0,STARLINK-3727,PAYLOAD,2024-01-19 20:17:29,15.08846889,0.0001487,53.2172,329.9796,86.4074,273.7088,0.00022197,3.247e-05,0.0,0 STARLINK-3727,1 52125U 22029AP  24019.84548497  .00003247  00000-0  22197-3 0  9995,2 52125  53.2172 329.9796 0001487  86.4074 273.7088 15.08846889103209,6917.859,95.437,540.753,538.696,0.0
52125.0,STARLINK-3727,PAYLOAD,2024-01-20 04:14:25,15.0886038,0.0001456,53.2166,328.493,90.6447,269.4712,0.00058071,8.971e-05,0.0,0 STARLINK-3727,1 52125U 22029AP  24020.17668065  .00008971  00000-0  58071-3 0  9996,2 52125  53.2166 328.4930 0001456  90.6447 269.4712 15.08860380103256,6917.818,95.436,540.69,538.676,0.0
52125.0,STARLINK-3727,PAYLOAD,2024-01-20 20:08:17,15.08842643,0.0001533,53.2164,325.5187,93.1516,266.9652,0.0001205,1.63e-05,0.0,0 STARLINK-3727,1 52125U 22029AP  24020.83908593  .00001630  00000-0  12050-3 0  9994,2 52125  53.2164 325.5187 0001533  93.1516 266.9652 15.08842643103355,6917.872,95.437,540.798,538.677,0.0
52125.0,STARLINK-3727,PAYLOAD,2024-01-21 05:40:35,15.08845799,0.0001548,53.2166,323.7342,92.5529,267.564,0.00033582,5.061e-05,0.0,0 STARLINK-3727,1 52125U 22029AP  24021.23652612  .00005061  00000-0  33582-3 0  9992,2 52125  53.2166 323.7342 0001548  92.5529 267.5640 15.08845799103419,6917.863,95.437,540.799,538.657,0.0
52125.0,STARLINK-3727,PAYLOAD,2024-01-22 02:20:36,15.08845662,0.0001786,53.2192,319.8672,103.4934,256.6257,0.00027012,4.014e-05,0.0,0 STARLINK-3727,1 52125U 22029AP  24022.09764722  .00004014  00000-0  27012-3 0  9991,2 52125  53.2192 319.8672 0001786 103.4934 256.6257 15.08845662103542,6917.863,95.437,540.964,538.493,0.0
52125.0,STARLINK-3727,PAYLOAD,2024-01-22 05:31:22,15.08849307,0.0001799,53.2183,319.2713,105.3447,254.7744,0.00038431,5.835e-05,0.0,0 STARLINK-3727,1 52125U 22029AP  24022.23012603  .00005835  00000-0  38431-3 0  9990,2 52125  53.2183 319.2713 0001799 105.3447 254.7744 15.08849307103568,6917.852,95.437,540.961,538.472,0.0
52125.0,STARLINK-3727,PAYLOAD,2024-01-22 23:00:37,15.08841297,0.0001954,53.2178,315.9943,135.096,225.0191,0.00013281,1.826e-05,0.0,0 STARLINK-3727,1 52125U 22029AP  24022.95876782  .00001826  00000-0  13281-3 0  9997,2 52125  53.2178 315.9943 0001954 135.0960 225.0191 15.08841297103672,6917.876,95.437,541.093,538.39,0.0
52125.0,STARLINK-3727,PAYLOAD,2024-01-23 00:36:00,15.08842593,0.0001772,53.2177,315.6974,129.3984,230.7166,0.00012954,1.774e-05,0.0,0 STARLINK-3727,1 52125U 22029AP  24023.02500797  .00001774  00000-0  12954-3 0  9994,2 52125  53.2177 315.6974 0001772 129.3984 230.7166 15.08842593103688,6917.872,95.437,540.963,538.512,0.0
52125.0,STARLINK-3727,PAYLOAD,2024-01-23 22:51:24,15.0884807,0.0001659,53.2176,311.5339,119.0808,241.0351,0.00017286,2.465e-05,0.0,0 STARLINK-3727,1 52125U 22029AP  24023.95236535  .00002465  00000-0  17286-3 0  9993,2 52125  53.2176 311.5339 0001659 119.0808 241.0351 15.08848070103825,6917.856,95.437,540.868,538.573,0.0
52125.0,STARLINK-3727,PAYLOAD,2024-01-24 00:26:47,15.08850424,0.0001446,53.2184,311.244,107.0593,253.0557,0.0001999,2.896e-05,0.0,0 STARLINK-3727,1 52125U 22029AP  24024.01860541  .00002896  00000-0  19990-3 0  9993,2 52125  53.2184 311.2440 0001446 107.0593 253.0557 15.08850424103834,6917.849,95.437,540.714,538.713,0.0
52125.0,STARLINK-3727,PAYLOAD,2024-01-24 22:42:11,15.08839803,0.0001891,53.2212,307.0999,127.3221,232.7943,1.9987e-05,3e-07,0.0,0 STARLINK-3727,1 52125U 22029AP  24024.94596991  .00000030  00000-0  19987-4 0  9995,2 52125  53.2212 307.0999 0001891 127.3221 232.7943 15.08839803103971,6917.881,95.438,541.054,538.438,0.0
52125.0,STARLINK-3727,PAYLOAD,2024-01-25 01:52:57,15.08844018,0.0001319,53.2176,306.4875,105.6951,254.4187,0.00013974,1.937e-05,0.0,0 STARLINK-3727,1 52125U 22029AP  24025.07844848  .00001937  00000-0  13974-3 0  9993,2 52125  53.2176 306.4875 0001319 105.6951 254.4187 15.08844018103997,6917.868,95.437,540.646,538.821,0.0
52125.0,STARLINK-3727,PAYLOAD,2024-01-25 22:32:59,15.0883768,0.0001399,53.2177,302.6233,109.2783,250.836,1.3785e-06,-2.66e-06,0.0,0 STARLINK-3727,1 52125U 22029AP  24025.93957213 -.00000266  00000-0  13785-5 0  9996,2 52125  53.2177 302.6233 0001399 109.2783 250.8360 15.08837680104121,6917.887,95.438,540.72,538.785,0.0
52125.0,STARLINK-3727,PAYLOAD,2024-01-26 01:43:45,15.08832319,0.0001708,53.2185,302.0322,60.0421,300.0741,-3.9283e-05,-9.13e-06,0.0,0 STARLINK-3727,1 52125U 22029AP  24026.07205834 -.00000913  00000-0 -39283-4 0  9997,2 52125  53.2185 302.0322 0001708  60.0421 300.0741 15.08832319104147,6917.904,95.438,540.95,538.587,0.0
52125.0,STARLINK-3727,PAYLOAD,2024-01-27 01:34:32,15.08846929,0.0001727,53.2175,297.5689,67.6386,292.4789,0.00018675,2.686e-05,0.0,0 STARLINK-3727,1 52125U 22029AP  24027.06565431  .00002686  00000-0  18675-3 0  9997,2 52125  53.2175 297.5689 0001727  67.6386 292.4789 15.08846929104298,6917.859,95.437,540.919,538.529,0.0
52125.0,STARLINK-3727,PAYLOAD,2024-01-27 22:14:33,15.08842177,0.0001723,53.2175,293.6968,74.6213,285.4969,0.00012139,1.644e-05,0.0,0 STARLINK-3727,1 52125U 22029AP  24027.92677732  .00001644  00000-0  12139-3 0  9992,2 52125  53.2175 293.6968 0001723  74.6213 285.4969 15.08842177104426,6917.874,95.437,540.931,538.547,0.0
52125.0,STARLINK-3727,PAYLOAD,2024-01-27 23:49:56,15.08842589,0.0001698,53.2183,293.3992,74.7976,285.3204,0.00013208,1.815e-05,0.0,0 STARLINK-3727,1 52125U 22029AP  24027.99301728  .00001815  00000-0  13208-3 0  9996,2 52125  53.2183 293.3992 0001698  74.7976 285.3204 15.08842589104436,6917.872,95.437,540.912,538.563,0.0
52125.0,STARLINK-3727,PAYLOAD,2024-01-28 22:05:20,15.08848859,0.0001624,53.2172,289.2438,82.4436,277.6741,-9.3568e-06,-4.37e-06,0.0,0 STARLINK-3727,1 52125U 22029AP  24028.92037542 -.00000437  00000-0 -93568-5 0  9990,2 52125  53.2172 289.2438 0001624  82.4436 277.6741 15.08848859104570,6917.853,95.437,540.842,538.595,0.0
52125.0,STARLINK-3727,PAYLOAD,2024-01-28 23:40:43,15.0884864,0.0001653,53.2172,288.9466,81.9961,278.1218,5.7911e-06,-1.96e-06,0.0,0 STARLINK-3727,1 52125U 22029AP  24028.98661542 -.00000196  00000-0  57911-5 0  9992,2 52125  53.2172 288.9466 0001653  81.9961 278.1218 15.08848640104580,6917.854,95.437,540.863,538.575,0.0
52125.0,STARLINK-3727,PAYLOAD,2024-01-30 20:11:31,15.08841694,0.0001453,53.2167,280.619,94.3634,265.7524,3.4793e-05,2.66e-06,0.0,0 STARLINK-3727,1 52125U 22029AP  24030.84133494  .00000266  00000-0  34793-4 0  9999,2 52125  53.2167 280.6190 0001453  94.3634 265.7524 15.08841694104865,6917.875,95.437,540.745,538.735,0.0
52125.0,STARLINK-3727,PAYLOAD,2024-01-30 21:46:54,15.08841316,0.0001444,53.2174,280.3212,94.8144,265.3013,3.9006e-05,3.33e-06,0.0,0 STARLINK-3727,1 52125U 22029AP  24030.90757572  .00000333  00000-0  39006-4 0  9992,2 52125  53.2174 280.3212 0001444  94.8144 265.3013 15.08841316104877,6917.876,95.437,540.74,538.742,0.0
